start=new Date('2021-11-05T00:00:00.000Z').valueOf();
sats=[{"FILE":"3202404","OBJECT_TYPE":"PAYLOAD","GP_ID":"188953896","ECCENTRICITY":"0.00022700","DECAY_DATE":null,"MEAN_ELEMENT_THEORY":"SGP4","OBJECT_ID":"2021-005R","BSTAR":"0.02079100000000","RA_OF_ASC_NODE":"340.1230","CLASSIFICATION_TYPE":"U","REF_FRAME":"TEME","TIME_SYSTEM":"UTC","TLE_LINE1":"1 47364U 21005R   21308.74710303  .00694940  00000-0  20791-1 0  9993","REV_AT_EPOCH":"4401","CENTER_NAME":"EARTH","EPHEMERIS_TYPE":"0","PERIOD":"93.999","INCLINATION":"53.0560","NORAD_CAT_ID":"47364","MEAN_ANOMALY":"287.2692","MEAN_MOTION_DOT":"0.00694940","COUNTRY_CODE":"US","APOAPSIS":"471.605","MEAN_MOTION":"15.31932065","LAUNCH_DATE":"2021-01-20","PERIAPSIS":"468.496","SITE":"AFETR","SEMIMAJOR_AXIS":"6848.185","TLE_LINE2":"2 47364  53.0560 340.1230 0002270  72.8556 287.2692 15.31932065 44012","EPOCH":"2021-11-04T17:55:49.701792","ARG_OF_PERICENTER":"72.8556","RCS_SIZE":"LARGE","ELEMENT_SET_NO":"999","MEAN_MOTION_DDOT":"0.0000000000000","OBJECT_NAME":"STARLINK-2079"},{"REF_FRAME":"TEME","TIME_SYSTEM":"UTC","CLASSIFICATION_TYPE":"U","BSTAR":"0.00023918000000","RA_OF_ASC_NODE":"232.6719","EPHEMERIS_TYPE":"0","CENTER_NAME":"EARTH","REV_AT_EPOCH":"4616","TLE_LINE1":"1 47365U 21005S   21308.51458042  .00033198  00000-0  23918-3 0  9996","OBJECT_TYPE":"PAYLOAD","GP_ID":"188919239","FILE":"3201782","OBJECT_ID":"2021-005S","ECCENTRICITY":"0.00061260","MEAN_ELEMENT_THEORY":"SGP4","DECAY_DATE":null,"LAUNCH_DATE":"2021-01-20","MEAN_MOTION":"15.73258851","APOAPSIS":"353.714","RCS_SIZE":"LARGE","MEAN_MOTION_DDOT":"0.0000000000000","OBJECT_NAME":"STARLINK-2080","ELEMENT_SET_NO":"999","TLE_LINE2":"2 47365  53.0493 232.6719 0006126 292.1085  67.9282 15.73258851 46169","SEMIMAJOR_AXIS":"6727.727","ARG_OF_PERICENTER":"292.1085","EPOCH":"2021-11-04T12:20:59.748288","PERIAPSIS":"345.471","SITE":"AFETR","INCLINATION":"53.0493","PERIOD":"91.530","COUNTRY_CODE":"US","MEAN_MOTION_DOT":"0.00033198","NORAD_CAT_ID":"47365","MEAN_ANOMALY":"67.9282"},{"OBJECT_ID":"2021-005T","ECCENTRICITY":"0.00012300","DECAY_DATE":null,"MEAN_ELEMENT_THEORY":"SGP4","FILE":"3201734","OBJECT_TYPE":"PAYLOAD","GP_ID":"188918584","TLE_LINE1":"1 47366U 21005T   21308.50749863  .00006548  00000-0  45779-3 0  9998","EPHEMERIS_TYPE":"0","REV_AT_EPOCH":"4396","CENTER_NAME":"EARTH","CLASSIFICATION_TYPE":"U","BSTAR":"0.00045779000000","RA_OF_ASC_NODE":"342.2658","TIME_SYSTEM":"UTC","REF_FRAME":"TEME","MEAN_MOTION_DOT":"0.00006548","NORAD_CAT_ID":"47366","MEAN_ANOMALY":"286.7361","COUNTRY_CODE":"US","PERIOD":"95.591","INCLINATION":"53.0562","PERIAPSIS":"546.296","SITE":"AFETR","RCS_SIZE":"LARGE","ELEMENT_SET_NO":"999","MEAN_MOTION_DDOT":"0.0000000000000","OBJECT_NAME":"STARLINK-2081","SEMIMAJOR_AXIS":"6925.283","TLE_LINE2":"2 47366  53.0562 342.2658 0001230  73.3763 286.7361 15.06421547 43964","ARG_OF_PERICENTER":"73.3763","EPOCH":"2021-11-04T12:10:47.881632","APOAPSIS":"547.999","LAUNCH_DATE":"2021-01-20","MEAN_MOTION":"15.06421547"},{"PERIOD":"95.592","INCLINATION":"53.0562","MEAN_ANOMALY":"275.5909","NORAD_CAT_ID":"47367","MEAN_MOTION_DOT":"0.00003493","COUNTRY_CODE":"US","APOAPSIS":"548.106","MEAN_MOTION":"15.06403566","LAUNCH_DATE":"2021-01-20","SITE":"AFETR","PERIAPSIS":"546.300","ARG_OF_PERICENTER":"84.5228","EPOCH":"2021-11-04T11:12:25.071840","SEMIMAJOR_AXIS":"6925.338","TLE_LINE2":"2 47367  53.0562 342.4613 0001304  84.5228 275.5909 15.06403566 43965","MEAN_MOTION_DDOT":"0.0000000000000","ELEMENT_SET_NO":"999","OBJECT_NAME":"STARLINK-2082","RCS_SIZE":"LARGE","FILE":"3201253","GP_ID":"188906595","OBJECT_TYPE":"PAYLOAD","MEAN_ELEMENT_THEORY":"SGP4","DECAY_DATE":null,"ECCENTRICITY":"0.00013040","OBJECT_ID":"2021-005U","RA_OF_ASC_NODE":"342.4613","BSTAR":"0.00025328000000","CLASSIFICATION_TYPE":"U","REF_FRAME":"TEME","TIME_SYSTEM":"UTC","TLE_LINE1":"1 47367U 21005U   21308.46695685  .00003493  00000-0  25328-3 0  9990","CENTER_NAME":"EARTH","REV_AT_EPOCH":"4396","EPHEMERIS_TYPE":"0"},{"DECAY_DATE":null,"MEAN_ELEMENT_THEORY":"SGP4","ECCENTRICITY":"0.00013240","OBJECT_ID":"2021-005V","GP_ID":"188907081","OBJECT_TYPE":"PAYLOAD","FILE":"3201253","CENTER_NAME":"EARTH","REV_AT_EPOCH":"4490","EPHEMERIS_TYPE":"0","TLE_LINE1":"1 47368U 21005V   21308.45957661  .00002902  00000-0  21361-3 0  9992","REF_FRAME":"TEME","TIME_SYSTEM":"UTC","RA_OF_ASC_NODE":"342.4858","BSTAR":"0.00021361000000","CLASSIFICATION_TYPE":"U","COUNTRY_CODE":"US","MEAN_ANOMALY":"288.4636","NORAD_CAT_ID":"47368","MEAN_MOTION_DOT":"0.00002902","INCLINATION":"53.0550","PERIOD":"95.592","ARG_OF_PERICENTER":"71.6497","EPOCH":"2021-11-04T11:01:47.419104","TLE_LINE2":"2 47368  53.0550 342.4858 0001324  71.6497 288.4636 15.06401623 44908","SEMIMAJOR_AXIS":"6925.344","ELEMENT_SET_NO":"999","MEAN_MOTION_DDOT":"0.0000000000000","OBJECT_NAME":"STARLINK-2084","RCS_SIZE":"LARGE","SITE":"AFETR","PERIAPSIS":"546.292","MEAN_MOTION":"15.06401623","LAUNCH_DATE":"2021-01-20","APOAPSIS":"548.125"},{"ARG_OF_PERICENTER":"71.2075","EPOCH":"2021-11-04T11:09:46.142496","SEMIMAJOR_AXIS":"6925.351","TLE_LINE2":"2 47369  53.0546 322.4654 0001422  71.2075 288.9068 15.06399135 45205","MEAN_MOTION_DDOT":"0.0000000000000","ELEMENT_SET_NO":"999","OBJECT_NAME":"STARLINK-2085","RCS_SIZE":"LARGE","SITE":"AFETR","PERIAPSIS":"546.231","MEAN_MOTION":"15.06399135","LAUNCH_DATE":"2021-01-20","APOAPSIS":"548.201","COUNTRY_CODE":"US","MEAN_ANOMALY":"288.9068","NORAD_CAT_ID":"47369","MEAN_MOTION_DOT":"0.00003952","INCLINATION":"53.0546","PERIOD":"95.592","CENTER_NAME":"EARTH","REV_AT_EPOCH":"4520","EPHEMERIS_TYPE":"0","TLE_LINE1":"1 47369U 21005W   21308.46511739  .00003952  00000-0  28407-3 0  9990","TIME_SYSTEM":"UTC","REF_FRAME":"TEME","RA_OF_ASC_NODE":"322.4654","BSTAR":"0.00028407000000","CLASSIFICATION_TYPE":"U","MEAN_ELEMENT_THEORY":"SGP4","DECAY_DATE":null,"ECCENTRICITY":"0.00014220","OBJECT_ID":"2021-005W","GP_ID":"188918068","OBJECT_TYPE":"PAYLOAD","FILE":"3201733"},{"PERIAPSIS":"546.124","SITE":"AFETR","SEMIMAJOR_AXIS":"6925.310","TLE_LINE2":"2 47370  53.0609 301.4387 0001518  68.7360 291.3791 15.06412636 44562","EPOCH":"2021-11-04T16:30:52.377408","ARG_OF_PERICENTER":"68.7360","RCS_SIZE":"LARGE","MEAN_MOTION_DDOT":"0.0000000000000","OBJECT_NAME":"STARLINK-2086","ELEMENT_SET_NO":"999","APOAPSIS":"548.226","MEAN_MOTION":"15.06412636","LAUNCH_DATE":"2021-01-20","NORAD_CAT_ID":"47370","MEAN_ANOMALY":"291.3791","MEAN_MOTION_DOT":"0.00004004","COUNTRY_CODE":"US","PERIOD":"95.591","INCLINATION":"53.0609","TLE_LINE1":"1 47370U 21005X   21308.68810622  .00004004  00000-0  28745-3 0  9993","CENTER_NAME":"EARTH","REV_AT_EPOCH":"4456","EPHEMERIS_TYPE":"0","BSTAR":"0.00028745000000","RA_OF_ASC_NODE":"301.4387","CLASSIFICATION_TYPE":"U","REF_FRAME":"TEME","TIME_SYSTEM":"UTC","ECCENTRICITY":"0.00015180","DECAY_DATE":null,"MEAN_ELEMENT_THEORY":"SGP4","OBJECT_ID":"2021-005X","FILE":"3202404","OBJECT_TYPE":"PAYLOAD","GP_ID":"188954899"},{"OBJECT_TYPE":"PAYLOAD","GP_ID":"188907113","FILE":"3201255","ECCENTRICITY":"0.00012450","DECAY_DATE":null,"MEAN_ELEMENT_THEORY":"SGP4","OBJECT_ID":"2021-005Y","TIME_SYSTEM":"UTC","REF_FRAME":"TEME","BSTAR":"0.00020593000000","RA_OF_ASC_NODE":"342.4171","CLASSIFICATION_TYPE":"U","CENTER_NAME":"EARTH","REV_AT_EPOCH":"4396","EPHEMERIS_TYPE":"0","TLE_LINE1":"1 47371U 21005Y   21308.47432749  .00002788  00000-0  20593-3 0  9991","INCLINATION":"53.0553","PERIOD":"95.592","COUNTRY_CODE":"US","NORAD_CAT_ID":"47371","MEAN_ANOMALY":"281.2026","MEAN_MOTION_DOT":"0.00002788","MEAN_MOTION":"15.06404849","LAUNCH_DATE":"2021-01-20","APOAPSIS":"548.061","TLE_LINE2":"2 47371  53.0553 342.4171 0001245  78.9103 281.2026 15.06404849 43961","SEMIMAJOR_AXIS":"6925.334","EPOCH":"2021-11-04T11:23:01.895136","ARG_OF_PERICENTER":"78.9103","RCS_SIZE":"LARGE","MEAN_MOTION_DDOT":"0.0000000000000","OBJECT_NAME":"STARLINK-2088","ELEMENT_SET_NO":"999","PERIAPSIS":"546.336","SITE":"AFETR"},{"GP_ID":"188919735","OBJECT_TYPE":"PAYLOAD","FILE":"3201782","DECAY_DATE":null,"MEAN_ELEMENT_THEORY":"SGP4","ECCENTRICITY":"0.00014880","OBJECT_ID":"2021-005Z","TIME_SYSTEM":"UTC","REF_FRAME":"TEME","RA_OF_ASC_NODE":"336.9680","BSTAR":"0.00013316000000","CLASSIFICATION_TYPE":"U","CENTER_NAME":"EARTH","REV_AT_EPOCH":"4404","EPHEMERIS_TYPE":"0","TLE_LINE1":"1 47372U 21005Z   21308.57151996  .00001702  00000-0  13316-3 0  9995","INCLINATION":"53.0556","PERIOD":"95.592","COUNTRY_CODE":"US","MEAN_ANOMALY":"289.4034","NORAD_CAT_ID":"47372","MEAN_MOTION_DOT":"0.00001702","MEAN_MOTION":"15.06399011","LAUNCH_DATE":"2021-01-20","APOAPSIS":"548.247","EPOCH":"2021-11-04T13:42:59.324544","ARG_OF_PERICENTER":"70.7116","SEMIMAJOR_AXIS":"6925.352","TLE_LINE2":"2 47372  53.0556 336.9680 0001488  70.7116 289.4034 15.06399011 44044","ELEMENT_SET_NO":"999","MEAN_MOTION_DDOT":"0.0000000000000","OBJECT_NAME":"STARLINK-2089","RCS_SIZE":"LARGE","SITE":"AFETR","PERIAPSIS":"546.186"},{"OBJECT_ID":"2021-005AA","ECCENTRICITY":"0.00011760","DECAY_DATE":null,"MEAN_ELEMENT_THEORY":"SGP4","OBJECT_TYPE":"PAYLOAD","GP_ID":"188954648","FILE":"3202404","EPHEMERIS_TYPE":"0","CENTER_NAME":"EARTH","REV_AT_EPOCH":"4398","TLE_LINE1":"1 47373U 21005AA  21308.60333448  .00006835  00000-0  47705-3 0  9995","TIME_SYSTEM":"UTC","REF_FRAME":"TEME","CLASSIFICATION_TYPE":"U","BSTAR":"0.00047705000000","RA_OF_ASC_NODE":"341.8321","COUNTRY_CODE":"US","MEAN_MOTION_DOT":"0.00006835","NORAD_CAT_ID":"47373","MEAN_ANOMALY":"285.3133","INCLINATION":"53.0544","PERIOD":"95.591","RCS_SIZE":"LARGE","MEAN_MOTION_DDOT":"0.0000000000000","ELEMENT_SET_NO":"999","OBJECT_NAME":"STARLINK-2092","TLE_LINE2":"2 47373  53.0544 341.8321 0001176  74.7986 285.3133 15.06421398 43983","SEMIMAJOR_AXIS":"6925.283","ARG_OF_PERICENTER":"74.7986","EPOCH":"2021-11-04T14:28:48.099072","PERIAPSIS":"546.334","SITE":"AFETR","LAUNCH_DATE":"2021-01-20","MEAN_MOTION":"15.06421398","APOAPSIS":"547.962"}];
